#aV2010  4 10  0  0   .00000000      96 DD+AD WGS84 FIT  NGA
## 1578 518400.00000000   900.00000000 55296  .0000000000000
+   30     1  2  3  4  5  6  7  8 10 11 12 13 14 15 16 17 18
+         19 20 21 22 23 24 26 27 28 29 30 31 32  0  0  0  0
+          0  0  0  0  0  0  0  0  0  0  0  0  0  0  0  0  0
+          0  0  0  0  0  0  0  0  0  0  0  0  0  0  0  0  0
+          0  0  0  0  0  0  0  0  0  0  0  0  0  0  0  0  0
++         0  0  0  0  0  0  0  0  0  0  0  0  0  0  0  0  0
++         0  0  0  0  0  0  0  0  0  0  0  0  0  0  0  0  0
++         0  0  0  0  0  0  0  0  0  0  0  0  0  0  0  0  0
++         0  0  0  0  0  0  0  0  0  0  0  0  0  0  0  0  0
++         0  0  0  0  0  0  0  0  0  0  0  0  0  0  0  0  0
%c cc cc ccc ccc cccc cccc cccc cccc ccccc ccccc ccccc ccccc
%c cc cc ccc ccc cccc cccc cccc cccc ccccc ccccc ccccc ccccc
%f  0.0000000  0.000000000  0.00000000000  0.000000000000000
%f  0.0000000  0.000000000  0.00000000000  0.000000000000000
%i    0    0    0    0      0      0      0      0         0
%i    0    0    0    0      0      0      0      0         0
/*      NGA, ST. LOUIS,MO.                                  
/*   EPHEMERIS COMPUTED FROM  3 DAYS OF DATA                
/* CCCCCCCCCCCCCCCCCCCCCCCCCCCCCCCCCCCCCCCCCCCCCCCCCCCCCCCCC
/* CCCCCCCCCCCCCCCCCCCCCCCCCCCCCCCCCCCCCCCCCCCCCCCCCCCCCCCCC
*  2010  4 10 16 15   .00000000                                                 
P  1 -15288.521301 -13084.615157 -17534.898794   -107.905987                    
V  1  22016.994468   -233.293453 -19004.118111      -.040790                    
P  2  19184.841004  -7550.413793 -16523.650159    245.130580                    
V  2  -9362.643368  19134.417123 -20108.035902       .036828                    
P  3 -17409.317508    515.043048  19778.094767    540.078219                    
V  3 -13194.636678 -22375.748853 -10492.448054       .051268                    
P  4  13840.285635   7613.737264 -21532.722773     56.912824                    
V  4 -15011.925689  22459.088421  -1361.204119       .085801                    
P  5  25822.041226  -2567.068548   5853.594260     -1.944061                    
V  5   7268.098931   3156.161181 -30484.002419       .002466                    
P  6 -18327.645489  -3934.388973  19048.017193    669.755385                    
V  6 -10270.273786 -21587.361383 -14345.394893      -.090801                    
P  7  -3267.928173  22193.342807  14084.514442       .653786                    
V  7 -11650.398422  13794.772096 -24577.420466      -.004176                    
P  8   6630.712391  14193.802128  21329.667645      4.784255                    
V  8 -17158.642013  21058.433133  -9179.946975       .002441                    
P 10  26353.418808   3999.033541  -2425.723102    -39.997180                    
V 10  -3054.083999   2466.761568 -31175.281824      -.009096                    
P 11 -10251.301683  24231.368630   1457.669339    -55.715786                    
V 11  -4267.348349  -3919.480928  30226.626345      -.023073                    
P 12  13542.260312 -12215.189948 -19200.913157   -128.271507                    
V 12  24364.070282   3066.689742  15334.062831       .044418                    
P 13   3553.181535  24624.149228  -9407.082774    305.433863                    
V 13  -5958.827540 -10214.173756 -29434.906808      -.003409                    
P 14 -14953.888818 -20332.509423  -8339.404045     32.263826                    
V 14  -2673.617923 -10527.741045  29856.425969       .046385                    
P 15  12187.298881  -9674.338914  21532.213209   -288.302732                    
V 15  12889.220609  24111.487449   3655.257766       .046542                    
P 16 -26612.703174  -2299.037960    131.963020    -60.148879                    
V 16     93.496424  -2258.190838 -31801.315893      -.038899                    
P 17  15525.547490  20161.359271  -7878.081517    143.313997                    
V 17   2008.651318  10193.335806  29461.768639       .026083                    
P 18  -6374.328246 -15807.922394  20708.862618     60.985823                    
V 18  25684.517062   1439.570106   8744.081574       .024237                    
P 19 -12149.368006  10061.201137  21366.103572    -27.176195                    
V 19 -10737.106250 -24892.090386   5921.600493      -.025697                    
P 20 -10225.578198  14351.287379 -19995.805425     57.973231                    
V 20 -25132.122908  -2122.975607  11460.707652      -.006543                    
P 21  -1439.994963 -20284.141639  17072.310208    -52.547817                    
V 21  14171.447502 -16237.822436 -19078.903895      -.025512                    
P 22 -18393.984294 -12566.086325  14686.370696    174.858112                    
V 22  18565.223169   -841.837951  22692.817066      -.008944                    
P 23  -3095.249828  20173.295252 -16855.065381    374.684572                    
V 23 -11009.063860 -18502.418766 -20459.082368      -.012276                    
P 24  -1914.428752 -19374.449179  18278.238888    277.969476                    
V 24  14908.285533 -17526.292828 -16853.645770       .030713                    
P 26   -625.094485 -22851.099491  12561.514212    -37.785577                    
V 26   8391.713506  14892.117365  26808.410611      -.045359                    
P 27  17218.185596 -18815.596886   7820.624530    141.867555                    
V 27  -2771.990400   8845.842057  30162.531710       .032803                    
P 28  16286.090390  13251.428884  16914.479277    -18.779564                    
V 28 -20476.571223   -660.526593  20538.775061       .007439                    
P 29  -3214.432316 -24263.291462 -10270.026837    111.587149                    
V 29   7748.891093  10933.872766 -27960.083597       .029867                    
P 30   1434.422467 -15481.164605 -21924.908136    232.500898                    
V 30  26926.412147    662.541011   1371.602475       .034919                    
P 31 -14357.564925  -4809.581764 -21628.295223    -42.902313                    
V 31  15257.622822 -23357.441876  -4717.124236       .020800                    
P 32 -19403.904856   8173.623199 -15642.143767     54.551554                    
V 32 -20064.701597  -5319.574770  21960.721459      -.085299                    
EOF
